[{"OBJECT_NAME":"STARLINK-5923","OBJECT_ID":"2023-064AT","EPOCH":"2025-11-17T11:28:05.680128","MEAN_MOTION":14.98312727,"ECCENTRICITY":0.0002388,"INCLINATION":70.0023,"RA_OF_ASC_NODE":27.4085,"ARG_OF_PERICENTER":264.545,"MEAN_ANOMALY":95.5437,"EPHEMERIS_TYPE":0,"CLASSIFICATION_TYPE":"U","NORAD_CAT_ID":56489,"ELEMENT_SET_NO":999,"REV_AT_EPOCH":13942,"BSTAR":-0.00017779,"MEAN_MOTION_DOT":-2.212e-5,"MEAN_MOTION_DDOT":0},{"OBJECT_NAME":"STARLINK-5873","OBJECT_ID":"2023-064AU","EPOCH":"2025-11-17T11:58:08.283936","MEAN_MOTION":14.98312474,"ECCENTRICITY":0.0002355,"INCLINATION":70.0021,"RA_OF_ASC_NODE":27.4823,"ARG_OF_PERICENTER":247.7902,"MEAN_ANOMALY":112.3007,"EPHEMERIS_TYPE":0,"CLASSIFICATION_TYPE":"U","NORAD_CAT_ID":56490,"ELEMENT_SET_NO":999,"REV_AT_EPOCH":13942,"BSTAR":-0.00020097,"MEAN_MOTION_DOT":-2.489e-5,"MEAN_MOTION_DDOT":0},{"OBJECT_NAME":"STARLINK-5842","OBJECT_ID":"2023-064AV","EPOCH":"2025-11-17T11:22:01.983648","MEAN_MOTION":14.98357799,"ECCENTRICITY":0.0002711,"INCLINATION":70.001,"RA_OF_ASC_NODE":27.3922,"ARG_OF_PERICENTER":270.3263,"MEAN_ANOMALY":89.7585,"EPHEMERIS_TYPE":0,"CLASSIFICATION_TYPE":"U","NORAD_CAT_ID":56491,"ELEMENT_SET_NO":999,"REV_AT_EPOCH":13942,"BSTAR":-0.00053303,"MEAN_MOTION_DOT":-6.452e-5,"MEAN_MOTION_DDOT":0},{"OBJECT_NAME":"STARLINK-5846","OBJECT_ID":"2023-064AW","EPOCH":"2025-11-17T11:16:02.959680","MEAN_MOTION":14.98325586,"ECCENTRICITY":0.0002534,"INCLINATION":70.0027,"RA_OF_ASC_NODE":27.3775,"ARG_OF_PERICENTER":263.7907,"MEAN_ANOMALY":96.2964,"EPHEMERIS_TYPE":0,"CLASSIFICATION_TYPE":"U","NORAD_CAT_ID":56492,"ELEMENT_SET_NO":999,"REV_AT_EPOCH":13942,"BSTAR":0.00017945,"MEAN_MOTION_DOT":2.049e-5,"MEAN_MOTION_DDOT":0},{"OBJECT_NAME":"STARLINK-5841","OBJECT_ID":"2023-064AX","EPOCH":"2025-11-17T10:57:41.873760","MEAN_MOTION":14.98330161,"ECCENTRICITY":0.000292,"INCLINATION":70.0002,"RA_OF_ASC_NODE":7.4518,"ARG_OF_PERICENTER":276.2578,"MEAN_ANOMALY":83.8249,"EPHEMERIS_TYPE":0,"CLASSIFICATION_TYPE":"U","NORAD_CAT_ID":56493,"ELEMENT_SET_NO":999,"REV_AT_EPOCH":13991,"BSTAR":0.00015423,"MEAN_MOTION_DOT":1.748e-5,"MEAN_MOTION_DDOT":0},{"OBJECT_NAME":"STARLINK-5530","OBJECT_ID":"2023-064AY","EPOCH":"2025-11-17T11:16:17.237280","MEAN_MOTION":14.98325691,"ECCENTRICITY":0.0002125,"INCLINATION":70.0031,"RA_OF_ASC_NODE":27.3797,"ARG_OF_PERICENTER":232.403,"MEAN_ANOMALY":127.6937,"EPHEMERIS_TYPE":0,"CLASSIFICATION_TYPE":"U","NORAD_CAT_ID":56494,"ELEMENT_SET_NO":999,"REV_AT_EPOCH":13942,"BSTAR":0.00023584,"MEAN_MOTION_DOT":2.722e-5,"MEAN_MOTION_DDOT":0},{"OBJECT_NAME":"STARLINK-5529","OBJECT_ID":"2023-064AZ","EPOCH":"2025-11-17T09:27:52.920000","MEAN_MOTION":14.98331895,"ECCENTRICITY":0.0003147,"INCLINATION":70.0011,"RA_OF_ASC_NODE":27.5169,"ARG_OF_PERICENTER":270.589,"MEAN_ANOMALY":89.4908,"EPHEMERIS_TYPE":0,"CLASSIFICATION_TYPE":"U","NORAD_CAT_ID":56495,"ELEMENT_SET_NO":999,"REV_AT_EPOCH":13941,"BSTAR":-2.3509e-5,"MEAN_MOTION_DOT":-3.74e-6,"MEAN_MOTION_DDOT":0},{"OBJECT_NAME":"STARLINK-5526","OBJECT_ID":"2023-064BA","EPOCH":"2025-11-17T10:58:01.186752","MEAN_MOTION":14.98309776,"ECCENTRICITY":0.0002739,"INCLINATION":70.0016,"RA_OF_ASC_NODE":27.3337,"ARG_OF_PERICENTER":267.3643,"MEAN_ANOMALY":92.7203,"EPHEMERIS_TYPE":0,"CLASSIFICATION_TYPE":"U","NORAD_CAT_ID":56496,"ELEMENT_SET_NO":999,"REV_AT_EPOCH":13942,"BSTAR":9.3265e-5,"MEAN_MOTION_DOT":1.019e-5,"MEAN_MOTION_DDOT":0},{"OBJECT_NAME":"STARLINK-5527","OBJECT_ID":"2023-064BB","EPOCH":"2025-11-17T10:52:14.028096","MEAN_MOTION":14.98341723,"ECCENTRICITY":0.0002746,"INCLINATION":70.0014,"RA_OF_ASC_NODE":27.3211,"ARG_OF_PERICENTER":276.174,"MEAN_ANOMALY":83.9106,"EPHEMERIS_TYPE":0,"CLASSIFICATION_TYPE":"U","NORAD_CAT_ID":56497,"ELEMENT_SET_NO":999,"REV_AT_EPOCH":13942,"BSTAR":0.00028514,"MEAN_MOTION_DOT":3.312e-5,"MEAN_MOTION_DDOT":0},{"OBJECT_NAME":"STARLINK-5522","OBJECT_ID":"2023-064BC","EPOCH":"2025-11-17T11:10:01.792992","MEAN_MOTION":14.98337714,"ECCENTRICITY":0.0002916,"INCLINATION":70.0013,"RA_OF_ASC_NODE":27.362,"ARG_OF_PERICENTER":265.4417,"MEAN_ANOMALY":94.6409,"EPHEMERIS_TYPE":0,"CLASSIFICATION_TYPE":"U","NORAD_CAT_ID":56498,"ELEMENT_SET_NO":999,"REV_AT_EPOCH":13942,"BSTAR":0.00029064,"MEAN_MOTION_DOT":3.377e-5,"MEAN_MOTION_DDOT":0},{"OBJECT_NAME":"STARLINK-5775","OBJECT_ID":"2023-065A","EPOCH":"2025-11-17T10:19:25.398912","MEAN_MOTION":15.02529327,"ECCENTRICITY":0.0001526,"INCLINATION":43.0023,"RA_OF_ASC_NODE":100.7056,"ARG_OF_PERICENTER":270.7244,"MEAN_ANOMALY":89.3424,"EPHEMERIS_TYPE":0,"CLASSIFICATION_TYPE":"U","NORAD_CAT_ID":56503,"ELEMENT_SET_NO":999,"REV_AT_EPOCH":13973,"BSTAR":9.8647e-5,"MEAN_MOTION_DOT":1.129e-5,"MEAN_MOTION_DDOT":0},{"OBJECT_NAME":"STARLINK-5716","OBJECT_ID":"2023-065B","EPOCH":"2025-11-16T16:41:37.639392","MEAN_MOTION":15.02538352,"ECCENTRICITY":0.00012835,"INCLINATION":43.0024,"RA_OF_ASC_NODE":104.65,"ARG_OF_PERICENTER":264.5555,"MEAN_ANOMALY":95.5141,"EPHEMERIS_TYPE":0,"CLASSIFICATION_TYPE":"U","NORAD_CAT_ID":56504,"ELEMENT_SET_NO":999,"REV_AT_EPOCH":13962,"BSTAR":0.0001208697,"MEAN_MOTION_DOT":1.43e-5,"MEAN_MOTION_DDOT":0},{"OBJECT_NAME":"STARLINK-5763","OBJECT_ID":"2023-065C","EPOCH":"2025-11-17T02:12:47.607552","MEAN_MOTION":15.02539478,"ECCENTRICITY":0.00014828,"INCLINATION":43.0027,"RA_OF_ASC_NODE":102.466,"ARG_OF_PERICENTER":247.9471,"MEAN_ANOMALY":112.1214,"EPHEMERIS_TYPE":0,"CLASSIFICATION_TYPE":"U","NORAD_CAT_ID":56505,"ELEMENT_SET_NO":999,"REV_AT_EPOCH":13968,"BSTAR":-2.0869611e-5,"MEAN_MOTION_DOT":-4.86e-6,"MEAN_MOTION_DDOT":0},{"OBJECT_NAME":"STARLINK-5340","OBJECT_ID":"2023-065D","EPOCH":"2025-11-17T10:22:59.562048","MEAN_MOTION":15.02537773,"ECCENTRICITY":0.0001461,"INCLINATION":43.005,"RA_OF_ASC_NODE":87.7058,"ARG_OF_PERICENTER":265.9476,"MEAN_ANOMALY":94.12,"EPHEMERIS_TYPE":0,"CLASSIFICATION_TYPE":"U","NORAD_CAT_ID":56506,"ELEMENT_SET_NO":999,"REV_AT_EPOCH":13988,"BSTAR":3.3819e-5,"MEAN_MOTION_DOT":2.53e-6,"MEAN_MOTION_DDOT":0},{"OBJECT_NAME":"STARLINK-5333","OBJECT_ID":"2023-065E","EPOCH":"2025-11-16T16:45:56.113632","MEAN_MOTION":15.02545319,"ECCENTRICITY":0.00018061,"INCLINATION":43.004,"RA_OF_ASC_NODE":65.6358,"ARG_OF_PERICENTER":262.9453,"MEAN_ANOMALY":97.1184,"EPHEMERIS_TYPE":0,"CLASSIFICATION_TYPE":"U","NORAD_CAT_ID":56507,"ELEMENT_SET_NO":999,"REV_AT_EPOCH":14007,"BSTAR":0.00024539483,"MEAN_MOTION_DOT":3.113e-5,"MEAN_MOTION_DDOT":0},{"OBJECT_NAME":"STARLINK-5335","OBJECT_ID":"2023-065F","EPOCH":"2025-11-17T02:08:00.471840","MEAN_MOTION":15.02542459,"ECCENTRICITY":0.00013152,"INCLINATION":43.0027,"RA_OF_ASC_NODE":102.4422,"ARG_OF_PERICENTER":272.3284,"MEAN_ANOMALY":87.7408,"EPHEMERIS_TYPE":0,"CLASSIFICATION_TYPE":"U","NORAD_CAT_ID":56508,"ELEMENT_SET_NO":999,"REV_AT_EPOCH":13968,"BSTAR":0.00011488387,"MEAN_MOTION_DOT":1.349e-5,"MEAN_MOTION_DDOT":0},{"OBJECT_NAME":"STARLINK-5334","OBJECT_ID":"2023-065G","EPOCH":"2025-11-17T11:29:35.242368","MEAN_MOTION":15.02542074,"ECCENTRICITY":0.0001263,"INCLINATION":43.0036,"RA_OF_ASC_NODE":100.2083,"ARG_OF_PERICENTER":272.4982,"MEAN_ANOMALY":87.5716,"EPHEMERIS_TYPE":0,"CLASSIFICATION_TYPE":"U","NORAD_CAT_ID":56509,"ELEMENT_SET_NO":999,"REV_AT_EPOCH":13974,"BSTAR":0.00012134,"MEAN_MOTION_DOT":1.436e-5,"MEAN_MOTION_DDOT":0},{"OBJECT_NAME":"STARLINK-5339","OBJECT_ID":"2023-065H","EPOCH":"2025-11-17T02:04:48.154944","MEAN_MOTION":15.02539047,"ECCENTRICITY":0.00014575,"INCLINATION":43.004,"RA_OF_ASC_NODE":102.426,"ARG_OF_PERICENTER":265.91,"MEAN_ANOMALY":94.1576,"EPHEMERIS_TYPE":0,"CLASSIFICATION_TYPE":"U","NORAD_CAT_ID":56510,"ELEMENT_SET_NO":999,"REV_AT_EPOCH":13968,"BSTAR":5.7737536e-5,"MEAN_MOTION_DOT":5.76e-6,"MEAN_MOTION_DDOT":0},{"OBJECT_NAME":"STARLINK-5351","OBJECT_ID":"2023-065J","EPOCH":"2025-11-17T11:24:47.138112","MEAN_MOTION":15.0254602,"ECCENTRICITY":0.0001343,"INCLINATION":43.0058,"RA_OF_ASC_NODE":100.1766,"ARG_OF_PERICENTER":277.5853,"MEAN_ANOMALY":82.4837,"EPHEMERIS_TYPE":0,"CLASSIFICATION_TYPE":"U","NORAD_CAT_ID":56511,"ELEMENT_SET_NO":999,"REV_AT_EPOCH":13974,"BSTAR":0.00013703,"MEAN_MOTION_DOT":1.648e-5,"MEAN_MOTION_DDOT":0},{"OBJECT_NAME":"STARLINK-5349","OBJECT_ID":"2023-065K","EPOCH":"2025-11-17T02:00:01.040832","MEAN_MOTION":15.02538489,"ECCENTRICITY":0.0001187,"INCLINATION":43.0039,"RA_OF_ASC_NODE":102.3905,"ARG_OF_PERICENTER":273.6886,"MEAN_ANOMALY":86.3821,"EPHEMERIS_TYPE":0,"CLASSIFICATION_TYPE":"U","NORAD_CAT_ID":56512,"ELEMENT_SET_NO":999,"REV_AT_EPOCH":13968,"BSTAR":9.4648515e-5,"MEAN_MOTION_DOT":1.075e-5,"MEAN_MOTION_DDOT":0},{"OBJECT_NAME":"STARLINK-5329","OBJECT_ID":"2023-065L","EPOCH":"2025-11-17T11:23:11.487264","MEAN_MOTION":15.02544235,"ECCENTRICITY":0.0001438,"INCLINATION":43.0033,"RA_OF_ASC_NODE":100.1686,"ARG_OF_PERICENTER":276.365,"MEAN_ANOMALY":83.7029,"EPHEMERIS_TYPE":0,"CLASSIFICATION_TYPE":"U","NORAD_CAT_ID":56513,"ELEMENT_SET_NO":999,"REV_AT_EPOCH":13974,"BSTAR":0.00010774,"MEAN_MOTION_DOT":1.252e-5,"MEAN_MOTION_DDOT":0},{"OBJECT_NAME":"STARLINK-5348","OBJECT_ID":"2023-065N","EPOCH":"2025-11-16T16:09:39.845376","MEAN_MOTION":15.02537367,"ECCENTRICITY":0.00013465,"INCLINATION":43.003,"RA_OF_ASC_NODE":104.479,"ARG_OF_PERICENTER":270.9983,"MEAN_ANOMALY":89.0705,"EPHEMERIS_TYPE":0,"CLASSIFICATION_TYPE":"U","NORAD_CAT_ID":56515,"ELEMENT_SET_NO":999,"REV_AT_EPOCH":13962,"BSTAR":0.00015427082,"MEAN_MOTION_DOT":1.881e-5,"MEAN_MOTION_DDOT":0},{"OBJECT_NAME":"STARLINK-5342","OBJECT_ID":"2023-065P","EPOCH":"2025-11-17T11:26:23.049024","MEAN_MOTION":15.02542106,"ECCENTRICITY":0.000132,"INCLINATION":43.0047,"RA_OF_ASC_NODE":100.1879,"ARG_OF_PERICENTER":261.7792,"MEAN_ANOMALY":98.2901,"EPHEMERIS_TYPE":0,"CLASSIFICATION_TYPE":"U","NORAD_CAT_ID":56516,"ELEMENT_SET_NO":999,"REV_AT_EPOCH":13974,"BSTAR":9.8099e-5,"MEAN_MOTION_DOT":1.122e-5,"MEAN_MOTION_DDOT":0}]
